location_id,address,city,state,country,postal_code
1,623 Donald Plains Apt. 461,Port Heatherview,South Carolina,French Southern Territories,65665
2,060 Vanessa Drives,Wadefort,Tennessee,Central African Republic,24305
3,4947 Stephen Gardens Suite 951,Millerstad,North Dakota,Sierra Leone,61648
4,9531 Lewis Manors,North Jackhaven,Kansas,Uganda,91066
5,477 James Landing,Victorialand,Kansas,Sweden,35890
6,700 Andrea Run,Mejiashire,Ohio,Panama,47846
7,877 Monique Isle Suite 366,Lake James,Florida,Cameroon,25100
8,6898 Joel Curve,West Kathleenbury,Colorado,Congo,11548
9,56814 Laura Highway Apt. 463,East Annland,Rhode Island,Liberia,32446
10,85632 Brandy Center,Martineztown,Maryland,Zambia,31579
11,14906 Marcus Ridge,Lake Heathershire,Wyoming,Nepal,37706
12,82086 Huff Prairie,Hilltown,Rhode Island,Sierra Leone,22827
13,6230 Alvarado Flats,Lake Lisaview,West Virginia,Hong Kong,92000
14,666 Tony Green Apt. 500,South Mistyland,Utah,Jersey,56355
15,62356 Peterson Shore Suite 233,East Jennifer,Missouri,Tokelau,16561
16,6409 Tyler Via,New Thomas,Missouri,Uganda,80226
17,17892 Parrish Mission,Espinozaberg,Kentucky,Christmas Island,76756
18,46406 Brandon Neck Apt. 345,Lisaville,West Virginia,Burkina Faso,11402
19,0552 Snow Gardens Apt. 549,West Emily,Wisconsin,Montenegro,65983
20,3130 Hall Common Suite 162,South Richard,Kentucky,Singapore,49839
21,4852 Chelsea Shore,Wadeville,Wyoming,Venezuela,15573
22,21603 Williams Plain,East Wendybury,Hawaii,Swaziland,92527
23,78960 Cory Junction Apt. 188,South Alejandro,New Jersey,Tunisia,88778
24,3003 Kevin Dale Suite 962,South Charlesburgh,Nebraska,Belize,58968
25,630 Ian Pines Suite 424,Georgeville,Utah,Gambia,17313
26,868 Patricia Ford,New Pamelaland,South Dakota,Grenada,95703
27,025 Allen Ranch Apt. 027,Donstad,Connecticut,Costa Rica,35027
28,786 Andrew Bypass,East Deborah,Pennsylvania,Belgium,28701
29,818 Michael Lane,Port Justinmouth,Kentucky,Nauru,46672
30,0795 Hanna Stream Apt. 367,Port Dianaberg,Nebraska,Mozambique,58641
31,06983 Morris Centers,North Joshuamouth,Arkansas,Cape Verde,41490
32,27702 Caroline Crossroad Suite 863,Lake Ericberg,South Dakota,Israel,73617
33,838 Bowers Village,Romanland,Kansas,Nigeria,69812
34,795 Stevens Inlet,New Stephanie,Kentucky,Saint Lucia,40853
35,3915 Charles Mews Suite 630,Port Michaelton,New Mexico,Argentina,86143
36,09768 Sandra Loaf,West Danielle,Georgia,Liechtenstein,89186
37,4556 Harris Vista,Markport,Kentucky,Serbia,56612
38,5719 Todd Place,East Donald,Iowa,Mexico,74361
39,3382 George Glens Apt. 836,Port Roberthaven,Arkansas,Estonia,66038
40,71850 Katelyn Estates Apt. 411,West William,Michigan,Niger,85370
41,7111 Greene Forges,West Scottton,Florida,North Macedonia,94416
42,108 John Harbors Suite 048,West Calvinland,Iowa,Chad,55977
43,8082 Burton Cape Suite 902,Kelseytown,Alaska,Belgium,49036
44,09611 Ashley Skyway,North Sarah,Vermont,Lesotho,27393
45,68181 Bentley Village Apt. 819,West Courtney,Indiana,Marshall Islands,98793
46,913 Williams Inlet Apt. 704,North Jennifer,Alaska,Central African Republic,83005
47,0309 Walls Rest,Martinezmouth,Alabama,Slovenia,44025
48,66504 Cunningham Shores,Sherrytown,Kansas,Ukraine,22007
49,1685 Cook Route Apt. 000,Wilsonfurt,Idaho,Bahamas,15556
50,405 Shawn Villages,Ochoashire,Mississippi,Albania,57556
51,737 Anna Rest Suite 890,Penaport,Missouri,Burundi,48461
52,25216 Lisa Locks Suite 825,East Jerry,Louisiana,Guatemala,75981
53,953 Courtney Mountains,Lake Mariaside,Arizona,France,69486
54,7483 Tracy Fork,East Natalie,Florida,Tajikistan,88729
55,3997 Alvarez Viaduct,West Samuelchester,Colorado,Bermuda,87264
56,938 Sally Gateway Apt. 147,South Joyce,Texas,Saint Barthelemy,70440
57,8094 Chad Burgs Suite 174,West Chloeton,Florida,Uganda,43315
58,7679 Christopher Ferry Apt. 568,Johnnyfort,Rhode Island,Botswana,54216
59,26160 Chad Villages,Chenton,Vermont,Austria,23134
60,65252 Ashley Crest,Angelaborough,Maine,Equatorial Guinea,42822
61,46019 Walsh Field Suite 741,West Terrimouth,Texas,El Salvador,10257
62,63994 Miller Square Apt. 508,Bettyshire,Maryland,Zambia,20830
63,016 Curtis Hollow,Aprilport,Montana,Bermuda,12027
64,3117 Guerra Harbors Suite 597,Davidport,Georgia,Palau,27789
65,6301 Jacobson Villages Suite 348,Nunezborough,Ohio,Malaysia,51401
66,02639 Christopher Park,Johnview,Oregon,Gabon,54302
67,280 Andrew Curve Suite 934,Singletonburgh,Washington,Mexico,40580
68,38545 Tyler Circle,Thomasmouth,Washington,Heard Island and McDonald Islands,94722
69,5758 Amy Way Suite 243,Andrewside,Michigan,French Southern Territories,22211
70,27049 Erica Dale Apt. 746,New Kimberly,Kentucky,Ethiopia,38708
71,9243 Moss Parkway Suite 461,West Robert,Florida,Lesotho,55630
72,564 Taylor Street,Scottstad,New York,Anguilla,37842
73,80302 Green Ridge Suite 531,Pamelaland,Nevada,Guam,95272
74,6157 Medina Village Suite 067,Port Thomas,Oregon,Swaziland,79411
75,151 Jay Mountains Suite 710,South Amy,Virginia,Thailand,30112
76,8863 Franklin Village,Hunterside,Rhode Island,United States Virgin Islands,48183
77,89218 Christopher Ports,North Josephville,Alaska,Bosnia and Herzegovina,42737
78,86888 Mcneil Drive,Lake Aaron,Florida,Saint Kitts and Nevis,36729
79,51061 Sullivan Common Suite 663,South Matthewview,Nebraska,Moldova,34104
80,4708 Fisher Greens Apt. 725,Pricetown,Missouri,British Virgin Islands,56859
81,334 Eric Cove Suite 467,Maryland,Minnesota,Cambodia,81208
82,043 Santiago Turnpike Apt. 986,Campbellmouth,Connecticut,Costa Rica,95217
83,0537 David Villages Apt. 525,Phillipschester,South Dakota,Palestinian Territory,82491
84,064 Michael Freeway,South Sarahburgh,Colorado,Palestinian Territory,27210
85,10965 Michael Oval Suite 149,West Emilychester,Tennessee,Malta,51398
86,14744 Gray Throughway,West James,Delaware,Greece,17701
87,256 Tina Freeway Suite 741,Emilyberg,Vermont,Syrian Arab Republic,17953
88,016 Hunter Forges Apt. 480,Georgeton,North Carolina,Guinea-Bissau,12990
89,00141 Shepard Passage Suite 513,West Brittany,Oklahoma,Mali,78440
90,72361 Isabella Inlet Suite 799,East Katherinetown,Wisconsin,Cambodia,40494
91,52005 Meyers Ports Apt. 108,Fullertown,Alabama,United States of America,14542
92,26641 Jose Meadows Apt. 412,Lake Amymouth,Indiana,Saint Pierre and Miquelon,80151
93,35921 Richard Port,Wagnershire,Arizona,Ireland,32569
94,967 Dylan Wall Suite 810,East Christopher,Missouri,Anguilla,30381
95,0564 Sanders Grove Apt. 200,Timothyton,Missouri,Nicaragua,31852
96,99490 Hudson Common,West Rebeccamouth,Connecticut,Palau,23243
97,705 Mckenzie Centers,Sydneyburgh,New York,Panama,64583
98,3713 Martinez Coves,Torreshaven,Illinois,Myanmar,37791
99,730 Eric Mountains,South Lauramouth,Utah,Sudan,73866
100,322 Karen Fields,North Rebecca,Illinois,Pitcairn Islands,18570
